IRIDIUM 921 [-]         
1 24873U 97034E   23255.88173142  .00022551  00000+0  90507-3 0  9996
2 24873  86.3834  64.0923 0004334 212.2899 147.8082 15.24855671432596
IRIDIUM 26 [-]          
1 24903U 97043A   23255.84596996  .00000692  00000+0  23153-3 0  9997
2 24903  86.4004  20.5080 0002294  90.6040 269.5420 14.35989044364382
IRIDIUM 22 [-]          
1 24907U 97043E   23255.89745367  .00000688  00000+0  23533-3 0  9991
2 24907  86.4001  23.5013 0002084  93.8772 266.2662 14.34900598364496
DUMMY MASS 1 [-]        
1 24925U 97048A   23255.88503783  .00000722  00000+0  79825-4 0  9994
2 24925  86.3297  72.5206 0004591 263.5559  96.5143 14.85814595409578
DUMMY MASS 2 [-]        
1 24926U 97048B   23255.87673347  .00000689  00000+0  76458-4 0  9999
2 24926  86.3297  74.0203 0005415 279.1311  80.9300 14.85576446409367
IRIDIUM 29 [-]          
1 24944U 97051A   23255.84918898  .00000662  00000+0  22397-3 0  9996
2 24944  86.3935  53.5209 0002057  97.6263 262.5167 14.35362610360953
IRIDIUM 33 [-]          
1 24946U 97051C   23255.83385213  .00000490  00000+0  16806-3 0  9993
2 24946  86.3852  52.8070 0008730  31.0040 329.1669 14.34103739360513
IRIDIUM 28 [-]          
1 24948U 97051E   23255.89650566  .00000735  00000+0  24486-3 0  9992
2 24948  86.3945  51.3856 0002327  82.5870 277.5592 14.36282150361476
